0 NPP
1 37849U 11061A   26161.57387839  .00000059  00000-0  49156-4 0  9999
2 37849  98.7953 102.4951 0001900  21.8270 338.2987 14.19516020757509
0 YAOGAN 12
1 37875U 11066B   26161.64530662  .00008136  00000-0  31376-3 0  9993
2 37875  97.1150 200.5218 0008223 244.1175 115.9217 15.26525625811041
0 KOMPSAT 3
1 38338U 12025B   26161.60022204  .00000367  00000-0  82026-4 0  9995
2 38338  98.1174 119.1740 0006419 126.1568 234.0228 14.62200374750382
0 HORYU 2
1 38340U 12025D   26161.32713101  .00003205  00000-0  32995-3 0  9993
2 38340  98.2163 293.9838 0007763 195.3167 164.7817 14.91028242747708
0 CSSWE
1 38761U 12048D   26161.29831041  .00024446  00000-0  51229-3 0  9996
2 38761  64.6611 116.8214 0048114 175.9164 184.2376 15.44128090115333
0 CP5
1 38763U 12048F   26161.32481943  .00009642  00000-0  33101-3 0  9994
2 38763  64.6434 175.2658 0079867 178.5541 181.5835 15.27616329115716
0 METOP-B
1 38771U 12049A   26161.57283689  .00000083  00000-0  57934-4 0  9999
2 38771  98.6506 213.2038 0002626  35.3149 324.8202 14.21430905712327
0 SJ-9A
1 38860U 12056A   26161.56316633  .00001175  00000-0  14174-3 0  9992
2 38860  97.6705 133.7542 0023914 280.0064  79.8453 14.85460595698607
0 COSMOS 2484
1 39059U 13001C   26161.62609970 -.00000038  00000-0 -34842-3 0  9993
2 39059  82.5019 225.9713 0027128  50.5893 309.7582 12.42938675607747
0 SARAL
1 39086U 13009A   26161.61648625  .00000083  00000-0  46573-4 0  9993
2 39086  98.5557 348.2671 0001067 343.6395  16.4755 14.32854299694661
0 AAUSAT3
1 39087U 13009B   26161.23185624  .00000565  00000-0  19332-3 0  9994
2 39087  98.3702 345.1844 0010389 228.8767 131.1525 14.39930829696173
0 STRAND 1
1 39090U 13009E   26161.23306514  .00000258  00000-0  10110-3 0  9995
2 39090  98.3921 341.6387 0007466 249.0407 110.9981 14.37159178696068
0 BRITE-A TUGSAT-1
1 39091U 13009F   26161.31259207  .00000151  00000-0  66105-4 0  9999
2 39091  98.3993 340.9187 0008977 259.7198 100.2977 14.36539349696069
0 BRITE-U UNIBRITE
1 39092U 13009G   26161.04560740  .00000171  00000-0  72937-4 0  9999
2 39092  98.4032 340.7675 0007904 256.4595 103.5712 14.36410449695969
0 AIST 2
1 39133U 13015D   26161.63879360  .00005260  00000-0  20928-3 0  9994
2 39133  64.8694 278.7434 0018992 246.6100 113.3033 15.26230879722908
0 GAOFEN 1
1 39150U 13018A   26161.62511252  .00000208  00000-0  37084-4 0  9997
2 39150  97.9094 233.8262 0015824 289.7619  70.1884 14.76528932707274
0 NEE 01 PEGASUS
1 39151U 13018B   26160.89654302  .00002457  00000-0  23819-3 0  9998
2 39151  98.1215 304.8067 0012551 181.9337 178.1836 14.93627979709615
0 TURKSAT 3U
1 39152U 13018C   26161.52815659  .00003398  00000-0  30463-3 0  9992
2 39152  97.7921 252.3810 0013497 120.4790 239.7766 14.96383848710096
0 CUBEBUG 1
1 39153U 13018D   26160.68335109  .00002367  00000-0  20961-3 0  9993
2 39153  98.1665 320.2916 0011606 167.2381 192.9136 14.97257943709944
0 PROBA V
1 39159U 13021A   26161.51238492  .00000067  00000-0  47550-4 0  9992
2 39159  98.3581 140.4487 0004864 139.3348 220.8195 14.23595585680169
0 ESTCUBE 1
1 39161U 13021C   26160.89978994  .00001407  00000-0  18639-3 0  9997
2 39161  97.7296 215.3409 0009198  47.1793 313.0192 14.81378596703948
0 KOMPSAT 5
1 39227U 13042A   26161.64815087  .00001411  00000-0  10523-3 0  9999
2 39227  97.6219 348.4411 0004703 138.8258 221.3324 15.04474650702870
0 GONETS M 05
1 39249U 13048A   26161.59466891 -.00000010  00000-0 -14575-3 0  9995
2 39249  82.4837 347.4935 0015844 225.5659 134.4125 12.42891391578068
0 GONETS M 07
1 39251U 13048C   26161.63824237  .00000010  00000-0  16039-5 0  9992
2 39251  82.4904 350.3853 0016619 226.8919 133.0771 12.42914298578022
0 FENGYUN 3C
1 39260U 13052A   26161.61252347  .00000084  00000-0  63845-4 0  9999
2 39260  98.4976 135.7894 0015569  45.6030 314.6416 14.15753556657630
0 CASSIOPE
1 39265U 13055A   26161.53461287  .00041526 -58148-6  45670-3 0  9997
2 39265  80.9145  74.7951 0295025  84.7435 278.7385 15.24573915666652
0 APRIZESAT 7
1 39416U 13066A   26161.57956392  .00000796  00000-0  84322-4 0  9996
2 39416  97.7706 114.8946 0034535 231.7576 128.0533 14.91550159680247
0 ZACUBE
1 39417U 13066B   26161.14175542  .00003283  00000-0  25692-3 0  9998
2 39417  97.8088 123.4403 0040113 272.4357  87.2274 15.01145439679670
0 APRIZESAT 8
1 39425U 13066K   26161.07899970  .00000941  00000-0  10783-3 0  9990
2 39425  97.8219 108.6462 0044754 310.6608  49.0722 14.87638823678618
