OBJECT_NAME,OBJECT_ID,EPOCH,MEAN_MOTION,ECCENTRICITY,INCLINATION,RA_OF_ASC_NODE,ARG_OF_PERICENTER,MEAN_ANOMALY,EPHEMERIS_TYPE,CLASSIFICATION_TYPE,NORAD_CAT_ID,ELEMENT_SET_NO,REV_AT_EPOCH,BSTAR,MEAN_MOTION_DOT,MEAN_MOTION_DDOT
SUOMI NPP,2011-061A,2026-06-10T13:46:23.092896,14.19516020,.00018998,98.7953,102.4951,21.8270,338.2987,0,U,37849,999,75750,.49156439E-4,.59E-6,0
YAOGAN-12,2011-066B,2026-06-10T15:29:14.491968,15.26525625,.0008223,97.1150,200.5218,244.1175,115.9217,0,U,37875,999,81104,.3137646E-3,.8136E-4,0
ARIRANG-3 (KOMPSAT-3),2012-025B,2026-06-10T14:24:19.184256,14.62200374,.00064193,98.1174,119.1740,126.1568,234.0228,0,U,38338,999,75038,.82025827E-4,.367E-5,0
HORYU-2,2012-025D,2026-06-10T07:51:04.119264,14.91028242,.00077625,98.2163,293.9838,195.3167,164.7817,0,U,38340,999,74770,.32994805E-3,.3205E-4,0
CSSWE,2012-048D,2026-06-10T07:09:34.019424,15.44128090,.0048114,64.6611,116.8214,175.9164,184.2376,0,U,38761,999,11533,.51229E-3,.24446E-3,0
CP5,2012-048F,2026-06-10T07:47:44.398752,15.27616329,.00798669,64.6434,175.2658,178.5541,181.5835,0,U,38763,999,11571,.33100708E-3,.9642E-4,0
METOP-B,2012-049A,2026-06-10T13:44:53.107296,14.21430905,.00026255,98.6506,213.2038,35.3149,324.8202,0,U,38771,999,71232,.5793355E-4,.83E-6,0
SJ-9A,2012-056A,2026-06-10T13:30:57.570912,14.85460595,.00239136,97.6705,133.7542,280.0064,79.8453,0,U,38860,999,69860,.14173871E-3,.1175E-4,0
COSMOS 2484 (RODNIK-S 6),2013-001C,2026-06-10T15:01:35.014080,12.42938675,.00271275,82.5019,225.9713,50.5893,309.7582,0,U,39059,999,60774,-.3484245E-3,-.38E-6,0
SARAL,2013-009A,2026-06-10T14:47:44.412000,14.32854299,.00010665,98.5557,348.2671,343.6395,16.4755,0,U,39086,999,69466,.46573363E-4,.83E-6,0
AAUSAT 3,2013-009B,2026-06-10T05:33:52.379136,14.39930829,.0010389,98.3702,345.1844,228.8767,131.1525,0,U,39087,999,69617,.19332E-3,.565E-5,0
STRAND-1,2013-009E,2026-06-10T05:35:36.828096,14.37159178,.0007466,98.3921,341.6387,249.0407,110.9981,0,U,39090,999,69606,.1011E-3,.258E-5,0
BRITE-AUSTRIA,2013-009F,2026-06-10T07:30:07.954848,14.36539349,.00089765,98.3993,340.9187,259.7198,100.2977,0,U,39091,999,69606,.66105194E-4,.151E-5,0
UNIBRITE,2013-009G,2026-06-10T01:05:40.479360,14.36410449,.00079037,98.4032,340.7675,256.4595,103.5712,0,U,39092,999,69596,.72936935E-4,.171E-5,0
AIST-2 (RS43),2013-015D,2026-06-10T15:19:51.767040,15.26230879,.00189921,64.8694,278.7434,246.6100,113.3033,0,U,39133,999,72290,.20928006E-3,.526E-4,0
GAOFEN-1,2013-018A,2026-06-10T15:00:09.721728,14.76528932,.00158241,97.9094,233.8262,289.7619,70.1884,0,U,39150,999,70727,.37083935E-4,.208E-5,0
NEE-01 PEGASO,2013-018B,2026-06-09T21:31:01.316928,14.93627979,.0012551,98.1215,304.8067,181.9337,178.1836,0,U,39151,999,70961,.23819067E-3,.2457E-4,0
TURKSAT-3USAT,2013-018C,2026-06-10T12:40:32.729376,14.96383848,.00134965,97.7921,252.3810,120.4790,239.7766,0,U,39152,999,71009,.30463442E-3,.3398E-4,0
CUBEBUG-1 (CAPITAN BETO),2013-018D,2026-06-09T16:24:01.534176,14.97257943,.00116063,98.1665,320.2916,167.2381,192.9136,0,U,39153,999,70994,.20960871E-3,.2367E-4,0
PROBA-V,2013-021A,2026-06-10T12:17:50.057088,14.23595585,.00048636,98.3581,140.4487,139.3348,220.8195,0,U,39159,999,68016,.4755031E-4,.67E-6,0
ESTCUBE 1,2013-021C,2026-06-09T21:35:41.850816,14.81378596,.0009198,97.7296,215.3409,47.1793,313.0192,0,U,39161,999,70394,.18638633E-3,.1407E-4,0
ARIRANG-5 (KOMPSAT-5),2013-042A,2026-06-10T15:33:20.235168,15.04474650,.00047031,97.6219,348.4411,138.8258,221.3324,0,U,39227,999,70287,.10523075E-3,.1411E-4,0
GONETS-M 5,2013-048A,2026-06-10T14:16:19.393824,12.42891391,.00158438,82.4837,347.4935,225.5659,134.4125,0,U,39249,999,57806,-.14575151E-3,-.1E-6,0
GONETS-M 7,2013-048C,2026-06-10T15:19:04.140768,12.42914298,.00166185,82.4904,350.3853,226.8919,133.0771,0,U,39251,999,57802,.1603883E-5,.1E-6,0
FENGYUN 3C,2013-052A,2026-06-10T14:42:02.027808,14.15753556,.00155688,98.4976,135.7894,45.6030,314.6416,0,U,39260,999,65763,.63845188E-4,.84E-6,0
CASSIOPE,2013-055A,2026-06-10T12:49:50.551968,15.24573915,.0295025,80.9145,74.7951,84.7435,278.7385,0,U,39265,999,66665,.45670273E-3,.41526E-3,-.581479E-6
APRIZESAT 7,2013-066A,2026-06-10T13:54:34.322688,14.91550159,.0034535,97.7706,114.8946,231.7576,128.0533,0,U,39416,999,68024,.84321786E-4,.796E-5,0
ZACUBE-1 (TSHEPISOSAT),2013-066B,2026-06-10T03:24:07.668288,15.01145439,.00401131,97.8088,123.4403,272.4357,87.2274,0,U,39417,999,67967,.25692287E-3,.3283E-4,0
APRIZESAT 8,2013-066K,2026-06-10T01:53:45.574080,14.87638823,.0044754,97.8219,108.6462,310.6608,49.0722,0,U,39425,999,67861,.10783461E-3,.941E-5,0
